CCSDS_OMM_VERS = 2.0
CREATION_DATE  = 
ORIGINATOR     = 

OBJECT_NAME    = STARLINK-36847
OBJECT_ID      = 2026-036G
CENTER_NAME    = EARTH
REF_FRAME      = TEME
TIME_SYSTEM    = UTC
MEAN_ELEMENT_THEORY = SGP/SGP4

EPOCH          = 2026-03-10T17:13:24.769920
MEAN_MOTION    = 15.82097162
ECCENTRICITY   = .00068518
INCLINATION    = 42.9984
RA_OF_ASC_NODE = 243.4479
ARG_OF_PERICENTER = 247.8236
MEAN_ANOMALY   = 112.1909

EPHEMERIS_TYPE = 0
CLASSIFICATION_TYPE = U
NORAD_CAT_ID   = 67910
ELEMENT_SET_NO = 999
REV_AT_EPOCH   = 383
BSTAR          = .32371678E-2
MEAN_MOTION_DOT = .746207E-2
MEAN_MOTION_DDOT = 0

CCSDS_OMM_VERS = 2.0
CREATION_DATE  = 
ORIGINATOR     = 

OBJECT_NAME    = STARLINK-36736
OBJECT_ID      = 2026-036H
CENTER_NAME    = EARTH
REF_FRAME      = TEME
TIME_SYSTEM    = UTC
MEAN_ELEMENT_THEORY = SGP/SGP4

EPOCH          = 2026-03-10T20:13:55.891200
MEAN_MOTION    = 15.82077629
ECCENTRICITY   = .00012431
INCLINATION    = 42.9994
RA_OF_ASC_NODE = 242.6667
ARG_OF_PERICENTER = 279.5727
MEAN_ANOMALY   = 80.5004

EPHEMERIS_TYPE = 0
CLASSIFICATION_TYPE = U
NORAD_CAT_ID   = 67911
ELEMENT_SET_NO = 999
REV_AT_EPOCH   = 385
BSTAR          = .97247572E-3
MEAN_MOTION_DOT = .209877E-2
MEAN_MOTION_DDOT = 0

CCSDS_OMM_VERS = 2.0
CREATION_DATE  = 
ORIGINATOR     = 

OBJECT_NAME    = STARLINK-36676
OBJECT_ID      = 2026-036J
CENTER_NAME    = EARTH
REF_FRAME      = TEME
TIME_SYSTEM    = UTC
MEAN_ELEMENT_THEORY = SGP/SGP4

EPOCH          = 2026-03-10T20:12:50.628960
MEAN_MOTION    = 15.82142638
ECCENTRICITY   = .00018417
INCLINATION    = 42.9985
RA_OF_ASC_NODE = 242.6598
ARG_OF_PERICENTER = 281.9700
MEAN_ANOMALY   = 78.0965

EPHEMERIS_TYPE = 0
CLASSIFICATION_TYPE = U
NORAD_CAT_ID   = 67912
ELEMENT_SET_NO = 999
REV_AT_EPOCH   = 385
BSTAR          = .14537818E-2
MEAN_MOTION_DOT = .319016E-2
MEAN_MOTION_DDOT = 0

CCSDS_OMM_VERS = 2.0
CREATION_DATE  = 
ORIGINATOR     = 

OBJECT_NAME    = STARLINK-36690
OBJECT_ID      = 2026-036K
CENTER_NAME    = EARTH
REF_FRAME      = TEME
TIME_SYSTEM    = UTC
MEAN_ELEMENT_THEORY = SGP/SGP4

EPOCH          = 2026-03-10T18:40:51.306240
MEAN_MOTION    = 15.82151648
ECCENTRICITY   = .00012086
INCLINATION    = 42.9982
RA_OF_ASC_NODE = 243.0398
ARG_OF_PERICENTER = 254.9349
MEAN_ANOMALY   = 105.1390

EPHEMERIS_TYPE = 0
CLASSIFICATION_TYPE = U
NORAD_CAT_ID   = 67913
ELEMENT_SET_NO = 999
REV_AT_EPOCH   = 384
BSTAR          = .15768973E-2
MEAN_MOTION_DOT = .347378E-2
MEAN_MOTION_DDOT = 0

CCSDS_OMM_VERS = 2.0
CREATION_DATE  = 
ORIGINATOR     = 

OBJECT_NAME    = STARLINK-36724
OBJECT_ID      = 2026-036L
CENTER_NAME    = EARTH
REF_FRAME      = TEME
TIME_SYSTEM    = UTC
MEAN_ELEMENT_THEORY = SGP/SGP4

EPOCH          = 2026-03-10T20:09:35.585280
MEAN_MOTION    = 15.82293235
ECCENTRICITY   = .00015541
INCLINATION    = 42.9985
RA_OF_ASC_NODE = 242.6402
ARG_OF_PERICENTER = 269.7029
MEAN_ANOMALY   = 90.3665

EPHEMERIS_TYPE = 0
CLASSIFICATION_TYPE = U
NORAD_CAT_ID   = 67914
ELEMENT_SET_NO = 999
REV_AT_EPOCH   = 385
BSTAR          = .27492559E-2
MEAN_MOTION_DOT = .630705E-2
MEAN_MOTION_DDOT = 0

CCSDS_OMM_VERS = 2.0
CREATION_DATE  = 
ORIGINATOR     = 

OBJECT_NAME    = STARLINK-36723
OBJECT_ID      = 2026-036M
CENTER_NAME    = EARTH
REF_FRAME      = TEME
TIME_SYSTEM    = UTC
MEAN_ELEMENT_THEORY = SGP/SGP4

EPOCH          = 2026-03-10T18:39:46.639296
MEAN_MOTION    = 15.82158621
ECCENTRICITY   = .00015662
INCLINATION    = 42.9988
RA_OF_ASC_NODE = 243.0347
ARG_OF_PERICENTER = 309.0105
MEAN_ANOMALY   = 51.0627

EPHEMERIS_TYPE = 0
CLASSIFICATION_TYPE = U
NORAD_CAT_ID   = 67915
ELEMENT_SET_NO = 999
REV_AT_EPOCH   = 384
BSTAR          = .18486261E-2
MEAN_MOTION_DOT = .410484E-2
MEAN_MOTION_DDOT = 0

CCSDS_OMM_VERS = 2.0
CREATION_DATE  = 
ORIGINATOR     = 

OBJECT_NAME    = STARLINK-36721
OBJECT_ID      = 2026-036N
CENTER_NAME    = EARTH
REF_FRAME      = TEME
TIME_SYSTEM    = UTC
MEAN_ELEMENT_THEORY = SGP/SGP4

EPOCH          = 2026-03-09T22:55:46.421760
MEAN_MOTION    = 15.82146319
ECCENTRICITY   = .00020473
INCLINATION    = 42.9991
RA_OF_ASC_NODE = 248.0530
ARG_OF_PERICENTER = 267.6120
MEAN_ANOMALY   = 92.4517

EPHEMERIS_TYPE = 0
CLASSIFICATION_TYPE = U
NORAD_CAT_ID   = 67916
ELEMENT_SET_NO = 999
REV_AT_EPOCH   = 371
BSTAR          = .16598112E-2
MEAN_MOTION_DOT = .366391E-2
MEAN_MOTION_DDOT = 0

CCSDS_OMM_VERS = 2.0
CREATION_DATE  = 
ORIGINATOR     = 

OBJECT_NAME    = STARLINK-36722
OBJECT_ID      = 2026-036P
CENTER_NAME    = EARTH
REF_FRAME      = TEME
TIME_SYSTEM    = UTC
MEAN_ELEMENT_THEORY = SGP/SGP4

EPOCH          = 2026-03-10T20:07:27.647616
MEAN_MOTION    = 15.82148661
ECCENTRICITY   = .0002027
INCLINATION    = 42.9984
RA_OF_ASC_NODE = 242.6288
ARG_OF_PERICENTER = 314.2120
MEAN_ANOMALY   = 45.8585

EPHEMERIS_TYPE = 0
CLASSIFICATION_TYPE = U
NORAD_CAT_ID   = 67917
ELEMENT_SET_NO = 999
REV_AT_EPOCH   = 385
BSTAR          = .23594797E-2
MEAN_MOTION_DOT = .531298E-2
MEAN_MOTION_DDOT = 0

CCSDS_OMM_VERS = 2.0
CREATION_DATE  = 
ORIGINATOR     = 

OBJECT_NAME    = STARLINK-36341
OBJECT_ID      = 2026-036Q
CENTER_NAME    = EARTH
REF_FRAME      = TEME
TIME_SYSTEM    = UTC
MEAN_ELEMENT_THEORY = SGP/SGP4

EPOCH          = 2026-03-09T21:21:52.154208
MEAN_MOTION    = 15.82409136
ECCENTRICITY   = .0002259
INCLINATION    = 42.9987
RA_OF_ASC_NODE = 248.4207
ARG_OF_PERICENTER = 306.3888
MEAN_ANOMALY   = 53.6775

EPHEMERIS_TYPE = 0
CLASSIFICATION_TYPE = U
NORAD_CAT_ID   = 67918
ELEMENT_SET_NO = 999
REV_AT_EPOCH   = 370
BSTAR          = .33126E-2
MEAN_MOTION_DOT = .777423E-2
MEAN_MOTION_DDOT = 0

CCSDS_OMM_VERS = 2.0
CREATION_DATE  = 
ORIGINATOR     = 

OBJECT_NAME    = STARLINK-36663
OBJECT_ID      = 2026-036R
CENTER_NAME    = EARTH
REF_FRAME      = TEME
TIME_SYSTEM    = UTC
MEAN_ELEMENT_THEORY = SGP/SGP4

EPOCH          = 2026-03-10T20:06:22.446720
MEAN_MOTION    = 15.82079097
ECCENTRICITY   = .00015514
INCLINATION    = 42.9983
RA_OF_ASC_NODE = 242.6233
ARG_OF_PERICENTER = 269.1890
MEAN_ANOMALY   = 90.8804

EPHEMERIS_TYPE = 0
CLASSIFICATION_TYPE = U
NORAD_CAT_ID   = 67919
ELEMENT_SET_NO = 999
REV_AT_EPOCH   = 385
BSTAR          = .81405034E-3
MEAN_MOTION_DOT = .174897E-2
MEAN_MOTION_DDOT = 0

CCSDS_OMM_VERS = 2.0
CREATION_DATE  = 
ORIGINATOR     = 

OBJECT_NAME    = STARLINK-36375
OBJECT_ID      = 2026-036S
CENTER_NAME    = EARTH
REF_FRAME      = TEME
TIME_SYSTEM    = UTC
MEAN_ELEMENT_THEORY = SGP/SGP4

EPOCH          = 2026-03-10T20:04:13.073952
MEAN_MOTION    = 15.82109736
ECCENTRICITY   = .00006906
INCLINATION    = 42.9990
RA_OF_ASC_NODE = 242.6117
ARG_OF_PERICENTER = 277.9892
MEAN_ANOMALY   = 82.0901

EPHEMERIS_TYPE = 0
CLASSIFICATION_TYPE = U
NORAD_CAT_ID   = 67920
ELEMENT_SET_NO = 999
REV_AT_EPOCH   = 385
BSTAR          = .13842814E-2
MEAN_MOTION_DOT = .302702E-2
MEAN_MOTION_DDOT = 0

CCSDS_OMM_VERS = 2.0
CREATION_DATE  = 
ORIGINATOR     = 

OBJECT_NAME    = STARLINK-36405
OBJECT_ID      = 2026-036T
CENTER_NAME    = EARTH
REF_FRAME      = TEME
TIME_SYSTEM    = UTC
MEAN_ELEMENT_THEORY = SGP/SGP4

EPOCH          = 2026-03-10T22:00:03.000096
MEAN_MOTION    = 15.73411841
ECCENTRICITY   = .00016724
INCLINATION    = 42.9993
RA_OF_ASC_NODE = 242.1885
ARG_OF_PERICENTER = 281.8478
MEAN_ANOMALY   = 149.4654

EPHEMERIS_TYPE = 0
CLASSIFICATION_TYPE = U
NORAD_CAT_ID   = 67921
ELEMENT_SET_NO = 999
REV_AT_EPOCH   = 384
BSTAR          = -.14898944E-1
MEAN_MOTION_DOT = -.1859526E-1
MEAN_MOTION_DDOT = 0

